name,address,city,state,zip,phone,fax
Adams County Board of Elections,4430 South Adams County Parkway,Brighton,Colorado,80601,720-523-6500,720-523-6266
Alamosa County Board of Elections,PO Box 630,Alamosa,Colorado,81101,719-589-6681,719-589-6118
Arapahoe County Board of Elections,5334 South Prince Street,Littleton,Colorado,80120,303-795-4511,303-794-4625
Archuleta County Board of Elections,PO Box 2589,Pagosa Springs,Colorado,81147,970-264-8331,970-264-8562
Baca County Board of Elections,741 Main Street,Springfield,Colorado,81073,719-523-4372,719-523-4881
Bent County Board of Elections,PO Box 350,Las Animas,Colorado,81054,719-456-2009,719-456-0375
Boulder County Board of Elections,1750 33rd Street,Boulder,Colorado,80301,303-413-7740,303-413-7750
Broomfield County Board of Elections,1 Descombes Drive,Broomfield,Colorado,80020,303-464-5857,303-410-3815
Chaffee County Board of Elections,PO Box 699,Salida,Colorado,81201,719-539-4004,719-539-8588
Cheyenne County Board of Elections,PO Box 567,Cheyenne Wells,Colorado,80810,719-767-5685,719-767-8730
Clear Creek County Board of Elections,PO Box 2000,Georgetown,Colorado,80444,303-679-2339,303-679-2416
Conejos County Board of Elections,PO Box 127,Conejos,Colorado,81129,719-376-5422,719-376-5997
Costilla County Board of Elections,PO Box 308,San Luis,Colorado,81152,719-672-3301,719-672-3781
Crowley County Board of Elections,631 Main Street,Ordway,Colorado,81063,719-267-5225,719-267-4608
Custer County Board of Elections,PO Box 150,Westcliffe,Colorado,81252,719-783-2441,719-783-2885
Delta County Board of Elections,501 Palmer Street,Delta,Colorado,81416,970-874-2449,970-874-2161
Denver County Board of Elections,200 West 14th Avenue,Denver,Colorado,80204,720-913-8683,720-913-8600
Dolores County Board of Elections,PO Box 58,Dove Creek,Colorado,81324,970-677-2381,970-677-4144
Douglas County Board of Elections,125 Stephanie Place,Castle Rock,Colorado,80109,303-660-7444,720-733-6977
Eagle County Board of Elections,500 Broadway Street,Eagle,Colorado,81631,800-225-6136,970-328-8716
