name,address,city,state,zip,phone,fax
Adams County Board of Elections,117 Baltimore Street,Gettysburg,Pennsylvania,17325,717-337-9832,
Allegheny County Board of Elections,542 Forbes Avenue,Pittsburgh,Pennsylvania,15219,412-350-4500,412-350-5697
Armstrong County Board of Elections,450 Market Street,Kittanning,Pennsylvania,16201,724-548-3222,
Beaver County Board of Elections,810 3rd Street,Beaver,Pennsylvania,15009,724-770-4440,724-728-9318
Bedford County Board of Elections,200 South Juliana Street,Bedford,Pennsylvania,15522,814-623-4807,
Berks County Board of Elections,633 Court Street,Reading,Pennsylvania,19601,610-478-6490,
Blair County Board of Elections,423 Allegheny Street,Hollidaysburg,Pennsylvania,16648,814-693-3150,
Bradford County Elections Bur,301 Main Street,Towanda,Pennsylvania,18848,570-265-1717,
Bucks County Board of Elections,55 East Court Street,Doylestown,Pennsylvania,18901,215-348-6163,
Butler County Board of Elections,W Diamond St,Butler,Pennsylvania,16001,724-284-5308,
Cambria County Board of Elections,PO Box 269,Ebensburg,Pennsylvania,15931,814-472-1464,814-472-9642
Cameron County Board of Elections,20 East 5th Street,Emporium,Pennsylvania,15834,814-486-2315,
Carbon County Board of Elections,PO Box 170,Jim Thorpe,Pennsylvania,18229,570-325-4801,570-325-3622
Centre County Board of Elections,420 Holmes Street,Bellefonte,Pennsylvania,16823,814-355-6703,814-355-6857
Chester County Board of Elections,601 Westtown Road,West Chester,Pennsylvania,19382,610-344-6410,
Clarion County Board of Elections,330 Main Street,Clarion,Pennsylvania,16214,814-226-4000,
Clearfield County Board of Elections,212 East Locust Street,Clearfield,Pennsylvania,16830,814-765-2642,
Clinton County Board of Elections,232 East Main Street,Lock Haven,Pennsylvania,17745,570-893-4019,
Columbia County Board of Elections,35 West Main Street,Bloomsburg,Pennsylvania,17815,570-389-5640,
Crawford County Board of Elections,Diamond Park Crawford County Courthouse 903,Meadville,Pennsylvania,16335,814-333-7308,814-337-0457
