{"Arizona": [{"city": "St. Johns", "fax": "928-337-7676", "name": "Apache County Board of Elections", "zip": "85936", "phone": "928-337-7537", "state": "Arizona", "address": "PO Box 425"}, {"city": "Bisbee", "fax": "520-432-8995", "name": "Cochise County Board of Elections", "zip": "85603", "phone": "520-432-8970", "state": "Arizona", "address": "1415 West Melody Lane"}, {"city": "Flagstaff", "fax": "928-679-7851", "name": "Coconino County Board of Elections", "zip": "86001", "phone": "928-679-7860", "state": "Arizona", "address": "110 East Cherry Avenue"}, {"city": "Globe", "fax": "928-402-4319", "name": "Gila County Board of Elections", "zip": "85501", "phone": "928-402-8708", "state": "Arizona", "address": "5515 South Apache Avenue"}, {"city": "Safford", "fax": "928-428-5951", "name": "Graham County Board of Elections", "zip": "85546", "phone": "928-792-5037", "state": "Arizona", "address": "921 West Thatcher Boulevard"}, {"city": "Clifton", "fax": "928-865-4417", "name": "Greenlee County Board of Elections", "zip": "85533", "phone": "928-865-2072", "state": "Arizona", "address": "PO Box 908"}, {"city": "Parker", "fax": "928-669-9709", "name": "La Paz County Board of Elections", "zip": "85344", "phone": "928-669-6115", "state": "Arizona", "address": "1108 South Joshua Avenue"}, {"city": "Phoenix", "fax": "602-506-3069", "name": "Maricopa County Board of Elections", "zip": "85003", "phone": "602-506-1511", "state": "Arizona", "address": "111 South 3rd Avenue"}, {"city": "Kingman", "fax": "928-718-4956", "name": "Mohave County Board of Elections", "zip": "86402", "phone": "928-753-0733", "state": "Arizona", "address": "PO Box 7000"}, {"city": "Holbrook", "fax": "928-524-4048", "name": "Navajo County Board of Elections", "zip": "86025", "phone": "928-524-4285", "state": "Arizona", "address": "100 E Code Talkers Dr"}, {"city": "Tucson", "fax": "520-351-6870", "name": "Pima County Board of Elections", "zip": "85756", "phone": "520-724-6830", "state": "Arizona", "address": "6550 South Country Club Road"}, {"city": "Florence", "fax": "520-866-6831", "name": "Pinal County Board of Elections", "zip": "85132", "phone": "520-866-6830", "state": "Arizona", "address": "31 North Pinal Street"}, {"city": "Nogales", "fax": "520-761-7843", "name": "Santa Cruz County Board of Elections", "zip": "85621", "phone": "520-375-7800", "state": "Arizona", "address": "2150 North Congress Drive"}, {"city": "Prescott", "fax": "928-771-3446", "name": "Yavapai County Board of Elections", "zip": "86305", "phone": "928-771-3250", "state": "Arizona", "address": "1015 Fair Street"}, {"city": "Yuma", "fax": "928-373-1154", "name": "Yuma County Board of Elections", "zip": "85364", "phone": "928-373-1014", "state": "Arizona", "address": "198 South Main Street"}], "Wisconsin": [{"city": "Friendship", "fax": "608-339-4514", "name": "Adams County Board of Elections", "zip": "53934", "phone": "608-339-4200", "state": "Wisconsin", "address": "PO Box 278"}, {"city": "Ashland", "fax": "", "name": "Ashland County Board of Elections", "zip": "54806", "phone": "715-682-7016", "state": "Wisconsin", "address": "201 Main Street West"}, {"city": "Barron", "fax": "715-537-6820", "name": "Barron County Board of Elections", "zip": "54812", "phone": "715-537-6200", "state": "Wisconsin", "address": "335 East Monroe Avenue"}, {"city": "Washburn", "fax": "", "name": "Bayfield County Board of Elections", "zip": "54891", "phone": "715-373-6100", "state": "Wisconsin", "address": "PO Box 878"}, {"city": "Green Bay", "fax": "920-448-4498", "name": "Brown County Board of Elections", "zip": "54301", "phone": "920-448-4016", "state": "Wisconsin", "address": "305 East Walnut Street"}, {"city": "Alma", "fax": "608-685-6284", "name": "Buffalo County Board of Elections", "zip": "54610", "phone": "608-685-6209", "state": "Wisconsin", "address": "407 South 2nd Street"}, {"city": "Siren", "fax": "715-349-2169", "name": "Burnett County Board of Elections", "zip": "54872", "phone": "715-349-2173", "state": "Wisconsin", "address": "7410 County Road K"}, {"city": "Chilton", "fax": "", "name": "Calumet County Board of Elections", "zip": "53014", "phone": "920-849-2361", "state": "Wisconsin", "address": "206 Court Street"}, {"city": "Neillsville", "fax": "715-743-5154", "name": "Clark County Board of Elections", "zip": "54456", "phone": "715-743-5148", "state": "Wisconsin", "address": "517 Court Street"}, {"city": "Portage", "fax": "608-742-9602", "name": "Columbia County Board of Elections", "zip": "53901", "phone": "608-742-9654", "state": "Wisconsin", "address": "400 De Witt Street"}, {"city": "Prairie du Chien", "fax": "", "name": "Crawford County Board of Elections", "zip": "53821", "phone": "608-326-0200", "state": "Wisconsin", "address": "225 North Beaumont Road"}, {"city": "Madison", "fax": "", "name": "Dane County Board of Elections", "zip": "53703", "phone": "608-266-4121", "state": "Wisconsin", "address": "210 Martin Luther King Junior Boulevard"}, {"city": "Juneau", "fax": "920-386-4292", "name": "Dodge County Board of Elections", "zip": "53039", "phone": "920-386-3600", "state": "Wisconsin", "address": "127 East Oak Street"}, {"city": "Sturgeon Bay", "fax": "920-746-2330", "name": "Door County Board of Elections", "zip": "54235", "phone": "920-746-2200", "state": "Wisconsin", "address": "421 Nebraska Street"}, {"city": "Superior", "fax": "715-395-1421", "name": "Douglas County Board of Elections", "zip": "54880", "phone": "715-395-1341", "state": "Wisconsin", "address": "1313 Belknap Street"}, {"city": "Menomonie", "fax": "715-232-2534", "name": "Dunn County Board of Elections", "zip": "54751", "phone": "715-232-1677", "state": "Wisconsin", "address": "800 Wilson Avenue"}, {"city": "Eau Claire", "fax": "", "name": "Eau Claire County Board of Elections", "zip": "54703", "phone": "715-839-4803", "state": "Wisconsin", "address": "721 Oxford Avenue"}, {"city": "Florence", "fax": "715-528-4762", "name": "Florence County Board of Elections", "zip": "54121", "phone": "715-528-3201", "state": "Wisconsin", "address": "501 Lake Avenue"}, {"city": "Crandon", "fax": "715-478-5175", "name": "Forest County Board of Elections", "zip": "54520", "phone": "715-478-2422", "state": "Wisconsin", "address": "200 East Madison Street"}, {"city": "Lancaster", "fax": "608-723-4048", "name": "Grant County Board of Elections", "zip": "53813", "phone": "608-723-2675", "state": "Wisconsin", "address": "PO Box 529"}], "Colorado": [{"city": "Brighton", "fax": "720-523-6266", "name": "Adams County Board of Elections", "zip": "80601", "phone": "720-523-6500", "state": "Colorado", "address": "4430 South Adams County Parkway"}, {"city": "Alamosa", "fax": "719-589-6118", "name": "Alamosa County Board of Elections", "zip": "81101", "phone": "719-589-6681", "state": "Colorado", "address": "PO Box 630"}, {"city": "Littleton", "fax": "303-794-4625", "name": "Arapahoe County Board of Elections", "zip": "80120", "phone": "303-795-4511", "state": "Colorado", "address": "5334 South Prince Street"}, {"city": "Pagosa Springs", "fax": "970-264-8562", "name": "Archuleta County Board of Elections", "zip": "81147", "phone": "970-264-8331", "state": "Colorado", "address": "PO Box 2589"}, {"city": "Springfield", "fax": "719-523-4881", "name": "Baca County Board of Elections", "zip": "81073", "phone": "719-523-4372", "state": "Colorado", "address": "741 Main Street"}, {"city": "Las Animas", "fax": "719-456-0375", "name": "Bent County Board of Elections", "zip": "81054", "phone": "719-456-2009", "state": "Colorado", "address": "PO Box 350"}, {"city": "Boulder", "fax": "303-413-7750", "name": "Boulder County Board of Elections", "zip": "80301", "phone": "303-413-7740", "state": "Colorado", "address": "1750 33rd Street"}, {"city": "Broomfield", "fax": "303-410-3815", "name": "Broomfield County Board of Elections", "zip": "80020", "phone": "303-464-5857", "state": "Colorado", "address": "1 Descombes Drive"}, {"city": "Salida", "fax": "719-539-8588", "name": "Chaffee County Board of Elections", "zip": "81201", "phone": "719-539-4004", "state": "Colorado", "address": "PO Box 699"}, {"city": "Cheyenne Wells", "fax": "719-767-8730", "name": "Cheyenne County Board of Elections", "zip": "80810", "phone": "719-767-5685", "state": "Colorado", "address": "PO Box 567"}, {"city": "Georgetown", "fax": "303-679-2416", "name": "Clear Creek County Board of Elections", "zip": "80444", "phone": "303-679-2339", "state": "Colorado", "address": "PO Box 2000"}, {"city": "Conejos", "fax": "719-376-5997", "name": "Conejos County Board of Elections", "zip": "81129", "phone": "719-376-5422", "state": "Colorado", "address": "PO Box 127"}, {"city": "San Luis", "fax": "719-672-3781", "name": "Costilla County Board of Elections", "zip": "81152", "phone": "719-672-3301", "state": "Colorado", "address": "PO Box 308"}, {"city": "Ordway", "fax": "719-267-4608", "name": "Crowley County Board of Elections", "zip": "81063", "phone": "719-267-5225", "state": "Colorado", "address": "631 Main Street"}, {"city": "Westcliffe", "fax": "719-783-2885", "name": "Custer County Board of Elections", "zip": "81252", "phone": "719-783-2441", "state": "Colorado", "address": "PO Box 150"}, {"city": "Delta", "fax": "970-874-2161", "name": "Delta County Board of Elections", "zip": "81416", "phone": "970-874-2449", "state": "Colorado", "address": "501 Palmer Street"}, {"city": "Denver", "fax": "720-913-8600", "name": "Denver County Board of Elections", "zip": "80204", "phone": "720-913-8683", "state": "Colorado", "address": "200 West 14th Avenue"}, {"city": "Dove Creek", "fax": "970-677-4144", "name": "Dolores County Board of Elections", "zip": "81324", "phone": "970-677-2381", "state": "Colorado", "address": "PO Box 58"}, {"city": "Castle Rock", "fax": "720-733-6977", "name": "Douglas County Board of Elections", "zip": "80109", "phone": "303-660-7444", "state": "Colorado", "address": "125 Stephanie Place"}, {"city": "Eagle", "fax": "970-328-8716", "name": "Eagle County Board of Elections", "zip": "81631", "phone": "800-225-6136", "state": "Colorado", "address": "500 Broadway Street"}], "New Jersey": [{"city": "Hamilton", "fax": "609-645-5875", "name": "Atlantic County Board of Elections", "zip": "08330", "phone": "609-645-5867", "state": "New Jersey", "address": "5903 Main Street"}, {"city": "Hackensack", "fax": "201-336-6234", "name": "Bergen County Board of Elections", "zip": "07601", "phone": "201-336-6225", "state": "New Jersey", "address": "1 University Plaza Drive"}, {"city": "Mount Holly", "fax": "609-265-3131", "name": "Burlington County Board of Elections", "zip": "08060", "phone": "609-265-5062", "state": "New Jersey", "address": "49 Rancocas Road"}, {"city": "Gloucester", "fax": "856-401-8689", "name": "Camden County Board of Elections", "zip": "08012", "phone": "800-418-9427", "state": "New Jersey", "address": "509 Lakeland Road"}, {"city": "Cape May Court House", "fax": "609-465-1639", "name": "Cape May County Board Elections", "zip": "08210", "phone": "609-465-1050", "state": "New Jersey", "address": "10 Mechanic Street"}, {"city": "Bridgeton", "fax": "856-451-3172", "name": "Cumberland County Board of Elections", "zip": "08302", "phone": "856-453-5801", "state": "New Jersey", "address": "555 Shiloh Pike"}, {"city": "Newark", "fax": "973-621-2540", "name": "Essex County Board of Elections", "zip": "07102", "phone": "973-621-5071", "state": "New Jersey", "address": "465 Doctor Martin Luther King Junior Boulevard"}, {"city": "Woodbury", "fax": "856-251-1647", "name": "Gloucester County Board of Elections", "zip": "08096", "phone": "856-384-4500", "state": "New Jersey", "address": "PO Box 352"}, {"city": "Jersey", "fax": "201-369-3436", "name": "Hudson County Board of Elections", "zip": "07302", "phone": "201-369-3435", "state": "New Jersey", "address": "257 Cornelison Avenue"}, {"city": "Flemington", "fax": "908-806-4686", "name": "Hunterdon County Board of Elections", "zip": "08822", "phone": "908-788-1190", "state": "New Jersey", "address": "71 Main Street"}, {"city": "Trenton", "fax": "609-278-2713", "name": "Mercer County Board of Elections", "zip": "08650", "phone": "609-989-6522", "state": "New Jersey", "address": "PO Box 8068"}, {"city": "New Brunswick", "fax": "732-214-1656", "name": "Middlesex County Board of Elections", "zip": "08901", "phone": "732-745-3471", "state": "New Jersey", "address": "777 Jersey Avenue"}, {"city": "Freehold", "fax": "732-303-7648", "name": "Monmouth County Board of Elections", "zip": "07728", "phone": "732-431-7802", "state": "New Jersey", "address": "300 Halls Mill Road"}, {"city": "Morristown", "fax": "973-285-8412", "name": "Morris County Board of Elections", "zip": "07960", "phone": "973-285-8350", "state": "New Jersey", "address": "10 Court Street"}, {"city": "Toms River", "fax": "732-506-5110", "name": "Ocean County Elections Board", "zip": "08753", "phone": "732-929-2167", "state": "New Jersey", "address": "129 Hooper Avenue"}, {"city": "Paterson", "fax": "973-523-9121", "name": "Passaic County Board of Elections", "zip": "07505", "phone": "973-881-4527", "state": "New Jersey", "address": "401 Grand Street"}, {"city": "Salem", "fax": "856-935-6725", "name": "Salem County Board of Elections", "zip": "08079", "phone": "856-935-7510", "state": "New Jersey", "address": "110 5th Street"}, {"city": "Somerville", "fax": "908-231-9465", "name": "Somerset County Board of Elections", "zip": "08876", "phone": "908-231-7084", "state": "New Jersey", "address": "20 Grove Street"}, {"city": "Newton", "fax": "973-579-0955", "name": "Sussex County Board of Elections", "zip": "07860", "phone": "973-579-0950", "state": "New Jersey", "address": "83 Spring Street"}, {"city": "Elizabeth", "fax": "908-527-4127", "name": "Union County Board of Elections", "zip": "07208", "phone": "908-527-4123", "state": "New Jersey", "address": "271 North Broad Street"}], "Washington": [{"city": "Ritzville", "fax": "509-659-3254", "name": "Adams County Board of Elections", "zip": "99169", "phone": "509-659-3249", "state": "Washington", "address": "210 West Broadway Avenue"}, {"city": "Asotin", "fax": "509-243-2087", "name": "Asotin County Board of Elections", "zip": "99402", "phone": "509-243-2084", "state": "Washington", "address": "PO Box 129"}, {"city": "Prosser", "fax": "509-786-5482", "name": "Benton County Board of Elections", "zip": "99350", "phone": "509-736-3085", "state": "Washington", "address": "PO Box 470"}, {"city": "Wenatchee", "fax": "509-667-6818", "name": "Chelan County Board of Elections", "zip": "98807", "phone": "509-667-6808", "state": "Washington", "address": "PO Box 4760"}, {"city": "Port Angeles", "fax": "360-417-2312", "name": "Clallam County Board of Elections", "zip": "98362", "phone": "360-417-2221", "state": "Washington", "address": "223 East 4th Street"}, {"city": "Vancouver", "fax": "360-397-2394", "name": "Clark County Board of Elections", "zip": "98666", "phone": "360-397-2345", "state": "Washington", "address": "PO Box 8815"}, {"city": "Dayton", "fax": "509-382-4830", "name": "Columbia County Board of Elections", "zip": "99328", "phone": "509-382-4541", "state": "Washington", "address": "341 East Main Street"}, {"city": "Kelso", "fax": "360-442-7879", "name": "Cowlitz County Board of Elections", "zip": "98626", "phone": "360-577-3005", "state": "Washington", "address": "207 4th Avenue North"}, {"city": "Waterville", "fax": "509-745-8812", "name": "Douglas County Board of Elections", "zip": "98858", "phone": "509-745-8527", "state": "Washington", "address": "PO Box 456"}, {"city": "Republic", "fax": "509-775-5208", "name": "Ferry County Board of Elections", "zip": "99166", "phone": "509-775-5200", "state": "Washington", "address": "350 E Delaware Ave Stop 2"}, {"city": "Pasco", "fax": "509-543-2995", "name": "Franklin County Board of Elections", "zip": "99301", "phone": "509-545-3538", "state": "Washington", "address": "PO Box 1451"}, {"city": "Pomeroy", "fax": "509-843-3941", "name": "Garfield County Board of Elections", "zip": "99347", "phone": "509-843-1411", "state": "Washington", "address": "PO Box 278"}, {"city": "Ephrata", "fax": "509-754-6562", "name": "Grant County Board of Elections", "zip": "98823", "phone": "509-754-2011", "state": "Washington", "address": "PO Box 37"}, {"city": "Montesano", "fax": "360-249-3330", "name": "Grays Harbor County Board of Elections", "zip": "98563", "phone": "360-964-1556", "state": "Washington", "address": "100 West Broadway Avenue"}, {"city": "Coupeville", "fax": "360-678-2326", "name": "Island County Board of Elections", "zip": "98239", "phone": "360-679-7366", "state": "Washington", "address": "PO Box 1410"}, {"city": "Port Townsend", "fax": "360-385-9228", "name": "Jefferson County Board of Elections", "zip": "98368", "phone": "360-385-9117", "state": "Washington", "address": "PO Box 563"}, {"city": "Renton", "fax": "206-296-0108", "name": "King County Board of Elections", "zip": "98057", "phone": "206-296-8683", "state": "Washington", "address": "919 Southwest Grady Way"}, {"city": "Port Orchard", "fax": "360-337-5769", "name": "Kitsap County Board of Elections", "zip": "98366", "phone": "360-337-7128", "state": "Washington", "address": "619 Division Street"}, {"city": "Ellensburg", "fax": "509-962-7687", "name": "Kittitas County Board of Elections", "zip": "98926", "phone": "509-962-7503", "state": "Washington", "address": "205 West 5th Avenue"}, {"city": "Goldendale", "fax": "509-773-4244", "name": "Klickitat County Board of Elections", "zip": "98620", "phone": "509-773-4001", "state": "Washington", "address": "205 S Columbus Ave Stop 2"}], "Michigan": [{"city": "Harrisville", "fax": "989-724-9419", "name": "Alcona County Board of Elections", "zip": "48740", "phone": "989-724-9410", "state": "Michigan", "address": "PO Box 308"}, {"city": "Munising", "fax": "906-387-2156", "name": "Alger County Board of Elections", "zip": "49862", "phone": "906-387-2076", "state": "Michigan", "address": "101 East Munising Avenue"}, {"city": "Allegan", "fax": "269-673-0298", "name": "Allegan County Board of Elections", "zip": "49010", "phone": "269-673-0450", "state": "Michigan", "address": "113 Chestnut Street"}, {"city": "Alpena", "fax": "989-354-9644", "name": "Alpena County Board of Elections", "zip": "49707", "phone": "989-354-9520", "state": "Michigan", "address": "720 West Chisholm Street"}, {"city": "Bellaire", "fax": "231-533-6935", "name": "Antrim County Board of Elections", "zip": "49615", "phone": "231-533-6353", "state": "Michigan", "address": "PO Box 520"}, {"city": "Standish", "fax": "989-846-9194", "name": "Arenac County Board of Elections", "zip": "48658", "phone": "989-846-4626", "state": "Michigan", "address": "120 North Grove Street"}, {"city": "L'Anse", "fax": "906-524-6432", "name": "Baraga County Board of Elections", "zip": "49946", "phone": "906-524-6183", "state": "Michigan", "address": "2 North Main Street"}, {"city": "Hastings", "fax": "269-945-0209", "name": "Barry County Board of Elections", "zip": "49058", "phone": "269-945-1285", "state": "Michigan", "address": "220 West State Street"}, {"city": "Bay", "fax": "", "name": "Bay County Board of Elections", "zip": "48708", "phone": "989-895-4280", "state": "Michigan", "address": "515 Center Avenue"}, {"city": "Beulah", "fax": "231-882-5941", "name": "Benzie County Board of Elections", "zip": "49617", "phone": "231-882-9671", "state": "Michigan", "address": "PO Box 377"}, {"city": "St. Joseph", "fax": "269-982-8642", "name": "Berrien County Board of Elections", "zip": "49085", "phone": "269-983-7111", "state": "Michigan", "address": "811 Port Street"}, {"city": "Coldwater", "fax": "517-278-5627", "name": "Branch County Board of Elections", "zip": "49036", "phone": "517-279-4306", "state": "Michigan", "address": "31 Division Street"}, {"city": "Marshall", "fax": "269-781-0720", "name": "Calhoun County Board of Elections", "zip": "49068", "phone": "269-781-0988", "state": "Michigan", "address": "315 West Green Street"}, {"city": "Cassopolis", "fax": "269-445-4406", "name": "Cass County Board of Elections", "zip": "49031", "phone": "269-445-4464", "state": "Michigan", "address": "PO Box 355"}, {"city": "Charlevoix", "fax": "231-547-7217", "name": "Charlevoix County Board of Elections", "zip": "49720", "phone": "231-547-7200", "state": "Michigan", "address": "203 Antrim Street"}, {"city": "Cheboygan", "fax": "231-627-8453", "name": "Cheboygan County Board of Elections", "zip": "49721", "phone": "231-627-8808", "state": "Michigan", "address": "PO Box 70"}, {"city": "Sault Ste. Marie", "fax": "906-635-6851", "name": "Chippewa County Board of Elections", "zip": "49783", "phone": "906-635-6300", "state": "Michigan", "address": "319 Court Street"}, {"city": "Harrison", "fax": "989-539-6616", "name": "Clare County Board of Elections", "zip": "48625", "phone": "989-539-7131", "state": "Michigan", "address": "PO Box 438"}, {"city": "St. Johns", "fax": "989-227-6421", "name": "Clinton County Board of Elections", "zip": "48879", "phone": "989-224-5140", "state": "Michigan", "address": "100 East State Street"}, {"city": "Grayling", "fax": "989-344-3223", "name": "Crawford County Board of Elections", "zip": "49738", "phone": "989-344-3200", "state": "Michigan", "address": "200 Michigan Avenue"}], "Florida": [{"city": "Gainesville", "fax": "352-374-5264", "name": "Alachua County Board of Elections", "zip": "32601", "phone": "352-374-5252", "state": "Florida", "address": "111 Southeast 1st Avenue"}, {"city": "Macclenny", "fax": "904-259-2799", "name": "Baker County Board of Elections", "zip": "32063", "phone": "904-259-6339", "state": "Florida", "address": "32 North 5th Street"}, {"city": "Panama", "fax": "", "name": "Bay County Board of Elections", "zip": "32401", "phone": "850-784-6100", "state": "Florida", "address": "830 West 11th Street"}, {"city": "Starke", "fax": "", "name": "Bradford County Board of Elections", "zip": "32091", "phone": "904-966-6266", "state": "Florida", "address": "PO Box 58"}, {"city": "Melbourne", "fax": "", "name": "Brevard County Board of Elections", "zip": "32941", "phone": "321-264-6740", "state": "Florida", "address": "PO Box 410819"}, {"city": "Fort Lauderdale", "fax": "954-357-7070", "name": "Broward County Board of Elections", "zip": "33301", "phone": "954-357-7050", "state": "Florida", "address": "115 South Andrews Avenue"}, {"city": "Blountstown", "fax": "", "name": "Calhoun County Board of Elections", "zip": "32424", "phone": "850-674-8568", "state": "Florida", "address": "20859 Central Avenue East"}, {"city": "Punta Gorda", "fax": "", "name": "Charlotte County Board of Elections", "zip": "33950", "phone": "941-833-5400", "state": "Florida", "address": "226 Taylor Street"}, {"city": "Inverness", "fax": "", "name": "Citrus County Board of Elections", "zip": "34450", "phone": "352-341-6740", "state": "Florida", "address": "120 North Apopka Avenue"}, {"city": "Green Cove Springs", "fax": "904-284-0935", "name": "Clay County Board of Elections", "zip": "32043", "phone": "904-269-6350", "state": "Florida", "address": "500 North Orange Avenue"}, {"city": "Naples", "fax": "", "name": "Collier County Board of Elections", "zip": "34112", "phone": "239-252-8683", "state": "Florida", "address": "3295 Tamiami Trail"}, {"city": "Lake", "fax": "386-755-7233", "name": "Columbia County Board of Elections", "zip": "32055", "phone": "386-758-1026", "state": "Florida", "address": "971 West Duval Street"}, {"city": "Arcadia", "fax": "", "name": "Desoto County Board of Elections", "zip": "34265", "phone": "863-993-4871", "state": "Florida", "address": "PO Box 89"}, {"city": "Cross City", "fax": "", "name": "Dixie County Board of Elections", "zip": "32628", "phone": "352-498-1216", "state": "Florida", "address": "PO Box 2057"}, {"city": "Jacksonville", "fax": "", "name": "Duval County Board of Elections", "zip": "32202", "phone": "904-630-1414", "state": "Florida", "address": "105 East Monroe Street"}, {"city": "Pensacola", "fax": "", "name": "Escambia County Elections Office", "zip": "32502", "phone": "850-595-3900", "state": "Florida", "address": "213 South Palafox Street"}, {"city": "Bunnell", "fax": "", "name": "Flagler County Board of Elections", "zip": "32110", "phone": "386-313-4170", "state": "Florida", "address": "PO Box 901"}, {"city": "Apalachicola", "fax": "", "name": "Franklin County Board of Elections", "zip": "32320", "phone": "850-653-9520", "state": "Florida", "address": "47 Avenue F"}, {"city": "Quincy", "fax": "", "name": "Gadsden County Board of Elections", "zip": "32353", "phone": "850-627-9910", "state": "Florida", "address": "PO Box 186"}, {"city": "Trenton", "fax": "", "name": "Gilchrist County Board of Elections", "zip": "32693", "phone": "352-463-3194", "state": "Florida", "address": "112 South Main Street"}], "Virginia": [{"city": "Accomac", "fax": "757-824-0525", "name": "Accomack County Board of Elections", "zip": "23301", "phone": "757-824-0525", "state": "Virginia", "address": "23312 Courthouse Avenue"}, {"city": "Charlottesville", "fax": "434-972-4178", "name": "Albemarle County Board of Elections", "zip": "22902", "phone": "434-972-4173", "state": "Virginia", "address": "1600 5th Street Extension"}, {"city": "Alexandria", "fax": "703-838-6449", "name": "Alexandria County Board of Elections", "zip": "22314", "phone": "703-838-4050", "state": "Virginia", "address": "132 N Royal St"}, {"city": "Covington", "fax": "540-965-1692", "name": "Alleghany County Board of Elections", "zip": "24426", "phone": "540-965-1690", "state": "Virginia", "address": "110 Rosedale Avenue"}, {"city": "Amelia Court House", "fax": "804-561-3490", "name": "Amelia County Board of Elections", "zip": "23002", "phone": "804-561-3460", "state": "Virginia", "address": "9127 Washington Street"}, {"city": "Amherst", "fax": "434-946-9345", "name": "Amherst County Board of Elections", "zip": "24521", "phone": "434-946-9315", "state": "Virginia", "address": "PO Box 550"}, {"city": "Appomattox", "fax": "434-352-4409", "name": "Appomattox County Board of Elections", "zip": "24522", "phone": "434-352-5302", "state": "Virginia", "address": "PO Box 8"}, {"city": "Arlington", "fax": "703-228-3659", "name": "Arlington County Board of Elections", "zip": "22201", "phone": "703-228-3456", "state": "Virginia", "address": "2100 North Clarendon Boulevard"}, {"city": "Verona", "fax": "540-245-5037", "name": "Augusta County Board of Elections", "zip": "24482", "phone": "540-245-5656", "state": "Virginia", "address": "18 Gov Center Lane"}, {"city": "Warm Springs", "fax": "540-839-7277", "name": "Bath County Board of Elections", "zip": "24484", "phone": "540-839-7266", "state": "Virginia", "address": "65 Courthouse Hill Road"}, {"city": "Bedford", "fax": "540-586-8358", "name": "Bedford County Board of Elections", "zip": "24523", "phone": "540-586-7649", "state": "Virginia", "address": "122 East Main Street"}, {"city": "Bedford", "fax": "540-586-6143", "name": "Bedford County Board of Elections", "zip": "24523", "phone": "540-587-6007", "state": "Virginia", "address": "214 East Main Street"}, {"city": "Bland", "fax": "276-688-3552", "name": "Bland County Board of Elections", "zip": "24315", "phone": "276-688-4441", "state": "Virginia", "address": "599 Main Street"}, {"city": "Fincastle", "fax": "540-473-8657", "name": "Botetourt County Board of Elections", "zip": "24090", "phone": "540-473-8235", "state": "Virginia", "address": "2 East Main Street"}, {"city": "Bristol", "fax": "276-645-7331", "name": "Bristol County Board of Elections", "zip": "24201", "phone": "276-645-7318", "state": "Virginia", "address": "300 Lee St Ste 101"}, {"city": "Lawrenceville", "fax": "434-848-9276", "name": "Brunswick County Board of Elections", "zip": "23868", "phone": "434-848-4414", "state": "Virginia", "address": "100 Old Tobacco Drive"}, {"city": "Grundy", "fax": "276-935-4320", "name": "Buchanan County Board of Elections", "zip": "24614", "phone": "276-935-6534", "state": "Virginia", "address": "PO Box 975"}, {"city": "Buckingham", "fax": "434-969-2060", "name": "Buckingham County Board of Elections", "zip": "23921", "phone": "434-969-4304", "state": "Virginia", "address": "13012 West James Anderson Highway"}, {"city": "Buena Vista", "fax": "540-261-8618", "name": "Buena Vista County Board of Elections", "zip": "24416", "phone": "540-261-8605", "state": "Virginia", "address": "2039 Sycamore Ave"}, {"city": "Rustburg", "fax": "434-332-9689", "name": "Campbell County Board of Elections", "zip": "24588", "phone": "434-332-9579", "state": "Virginia", "address": "41 Courthouse Lane"}], "Oregon": [{"city": "Baker", "fax": "", "name": "Baker County Board of Elections", "zip": "97814", "phone": "541-523-8207", "state": "Oregon", "address": "1995 3rd Street"}, {"city": "Corvallis", "fax": "", "name": "Benton County Board of Elections", "zip": "97330", "phone": "541-766-6756", "state": "Oregon", "address": "120 Northwest 4th Street"}, {"city": "Oregon", "fax": "", "name": "Clackamas County Board of Elections", "zip": "97045", "phone": "503-655-8510", "state": "Oregon", "address": "1710 South Red Soils Court"}, {"city": "Astoria", "fax": "503-325-9307", "name": "Clatsop County Board of Elections", "zip": "97103", "phone": "503-325-8511", "state": "Oregon", "address": "820 Exchange Street"}, {"city": "St. Helens", "fax": "", "name": "Columbia County Board of Elections", "zip": "97051", "phone": "503-397-7214", "state": "Oregon", "address": "230 The Strand"}, {"city": "Coquille", "fax": "541-396-1013", "name": "Coos County Board of Elections", "zip": "97423", "phone": "541-396-7610", "state": "Oregon", "address": "250 North Baxter Street"}, {"city": "Prineville", "fax": "", "name": "Crook County Board of Elections", "zip": "97754", "phone": "541-447-6553", "state": "Oregon", "address": "300 Northeast 3rd Street"}, {"city": "Gold Beach", "fax": "", "name": "Curry County Board of Elections", "zip": "97444", "phone": "541-247-3297", "state": "Oregon", "address": "94235 Moore Street"}, {"city": "Bend", "fax": "541-383-4424", "name": "Deschutes County Board of Elections", "zip": "97701", "phone": "541-388-6546", "state": "Oregon", "address": "1300 Northwest Wall Street"}, {"city": "Roseburg", "fax": "", "name": "Douglas County Board of Elections", "zip": "97470", "phone": "541-440-4252", "state": "Oregon", "address": "PO Box 10"}, {"city": "Condon", "fax": "", "name": "Gilliam County Board of Elections", "zip": "97823", "phone": "541-384-2311", "state": "Oregon", "address": "PO Box 427"}, {"city": "Canyon City", "fax": "", "name": "Grant County Board of Elections", "zip": "97820", "phone": "541-575-1675", "state": "Oregon", "address": "201 South Humbolt Street"}, {"city": "Burns", "fax": "", "name": "Harney County Board of Elections", "zip": "97720", "phone": "541-573-6641", "state": "Oregon", "address": "450 North Buena Vista Avenue"}, {"city": "Hood River", "fax": "", "name": "Hood River County Board of Elections", "zip": "97031", "phone": "541-386-1442", "state": "Oregon", "address": "601 State Street"}, {"city": "Medford", "fax": "", "name": "Jackson County Board of Elections", "zip": "97501", "phone": "541-774-6148", "state": "Oregon", "address": "1101 West Main Street"}, {"city": "Madras", "fax": "", "name": "Jefferson County Board of Elections", "zip": "97741", "phone": "541-475-4451", "state": "Oregon", "address": "66 Southeast D Street"}, {"city": "Grants Pass", "fax": "", "name": "Josephine County Board of Elections", "zip": "97528", "phone": "541-474-5243", "state": "Oregon", "address": "PO Box 69"}, {"city": "Klamath Falls", "fax": "", "name": "Klamath County Board of Elections", "zip": "97601", "phone": "541-883-5157", "state": "Oregon", "address": "305 Main Street"}, {"city": "Lakeview", "fax": "", "name": "Lake County Board of Elections", "zip": "97630", "phone": "541-947-6006", "state": "Oregon", "address": "513 Center Street"}, {"city": "Eugene", "fax": "", "name": "Lane County Board of Elections", "zip": "97401", "phone": "541-682-4234", "state": "Oregon", "address": "275 West 10th Avenue"}], "Illinois": [{"city": "Quincy", "fax": "217-277-2155", "name": "Adams County Board of Elections", "zip": "62301", "phone": "217-277-2150", "state": "Illinois", "address": "507 Vermont Street"}, {"city": "Cairo", "fax": "618-734-7002", "name": "Alexander County Board of Elections", "zip": "62914", "phone": "618-734-7000", "state": "Illinois", "address": "2000 Washington Avenue"}, {"city": "Greenville", "fax": "618-664-9414", "name": "Bond County Board of Elections", "zip": "62246", "phone": "618-664-0449", "state": "Illinois", "address": "203 West College Avenue"}, {"city": "Belvidere", "fax": "815-547-8701", "name": "Boone County Board of Elections", "zip": "61008", "phone": "815-544-3103", "state": "Illinois", "address": "1212 Logan Avenue"}, {"city": "Mount Sterling", "fax": "217-773-2233", "name": "Brown County Board of Elections", "zip": "62353", "phone": "217-773-3421", "state": "Illinois", "address": "200 East Court Street"}, {"city": "Princeton", "fax": "815-879-4803", "name": "Bureau County Board of Elections", "zip": "61356", "phone": "815-875-2014", "state": "Illinois", "address": "700 South Main Street"}, {"city": "Hardin", "fax": "618-576-2895", "name": "Calhoun County Board of Elections", "zip": "62047", "phone": "618-576-2351", "state": "Illinois", "address": "102 South County Road"}, {"city": "Mount Carroll", "fax": "815-244-3709", "name": "Carroll County Board of Elections", "zip": "61053", "phone": "815-244-0221", "state": "Illinois", "address": "301 North Main Street"}, {"city": "Virginia", "fax": "217-452-7219", "name": "Cass County Board of Elections", "zip": "62691", "phone": "217-452-7217", "state": "Illinois", "address": "100 East Springfield Street"}, {"city": "Urbana", "fax": "217-384-1241", "name": "Champaign County Board of Elections", "zip": "61802", "phone": "217-384-3724", "state": "Illinois", "address": "1776 East Washington Street"}, {"city": "Taylorville", "fax": "217-824-5105", "name": "Christian County Board of Elections", "zip": "62568", "phone": "217-824-4969", "state": "Illinois", "address": "PO Box 647"}, {"city": "Marshall", "fax": "217-826-2519", "name": "Clark County Board of Elections", "zip": "62441", "phone": "217-826-8311", "state": "Illinois", "address": "501 Archer Avenue"}, {"city": "Louisville", "fax": "618-665-3607", "name": "Clay County Board of Elections", "zip": "62858", "phone": "618-665-3626", "state": "Illinois", "address": "111 West Chestnut Street"}, {"city": "Carlyle", "fax": "618-594-0195", "name": "Clinton County Board of Elections", "zip": "62231", "phone": "618-594-2464", "state": "Illinois", "address": "850 Fairfax Street"}, {"city": "Charleston", "fax": "217-348-7337", "name": "Coles County Board of Elections", "zip": "61920", "phone": "217-348-0523", "state": "Illinois", "address": "651 Jackson Avenue"}, {"city": "Chicago", "fax": "312-603-9788", "name": "Cook County Board of Elections", "zip": "60602", "phone": "312-603-0906", "state": "Illinois", "address": "69 West Washington Street"}, {"city": "Robinson", "fax": "618-546-0140", "name": "Crawford County Board of Elections", "zip": "62454", "phone": "618-544-2590", "state": "Illinois", "address": "100 Douglas Street"}, {"city": "Toledo", "fax": "217-849-2968", "name": "Cumberland County Board of Elections", "zip": "62468", "phone": "217-849-2631", "state": "Illinois", "address": "140 Courthouse Square"}, {"city": "Clinton", "fax": "217-935-7789", "name": "De Witt County Board of Elections", "zip": "61727", "phone": "217-935-7780", "state": "Illinois", "address": "201 West Washington Street"}, {"city": "Sycamore", "fax": "815-895-7148", "name": "Dekalb County Board of Elections", "zip": "60178", "phone": "815-895-7149", "state": "Illinois", "address": "110 East Sycamore Street"}], "Pennsylvania": [{"city": "Gettysburg", "fax": "", "name": "Adams County Board of Elections", "zip": "17325", "phone": "717-337-9832", "state": "Pennsylvania", "address": "117 Baltimore Street"}, {"city": "Pittsburgh", "fax": "412-350-5697", "name": "Allegheny County Board of Elections", "zip": "15219", "phone": "412-350-4500", "state": "Pennsylvania", "address": "542 Forbes Avenue"}, {"city": "Kittanning", "fax": "", "name": "Armstrong County Board of Elections", "zip": "16201", "phone": "724-548-3222", "state": "Pennsylvania", "address": "450 Market Street"}, {"city": "Beaver", "fax": "724-728-9318", "name": "Beaver County Board of Elections", "zip": "15009", "phone": "724-770-4440", "state": "Pennsylvania", "address": "810 3rd Street"}, {"city": "Bedford", "fax": "", "name": "Bedford County Board of Elections", "zip": "15522", "phone": "814-623-4807", "state": "Pennsylvania", "address": "200 South Juliana Street"}, {"city": "Reading", "fax": "", "name": "Berks County Board of Elections", "zip": "19601", "phone": "610-478-6490", "state": "Pennsylvania", "address": "633 Court Street"}, {"city": "Hollidaysburg", "fax": "", "name": "Blair County Board of Elections", "zip": "16648", "phone": "814-693-3150", "state": "Pennsylvania", "address": "423 Allegheny Street"}, {"city": "Towanda", "fax": "", "name": "Bradford County Elections Bur", "zip": "18848", "phone": "570-265-1717", "state": "Pennsylvania", "address": "301 Main Street"}, {"city": "Doylestown", "fax": "", "name": "Bucks County Board of Elections", "zip": "18901", "phone": "215-348-6163", "state": "Pennsylvania", "address": "55 East Court Street"}, {"city": "Butler", "fax": "", "name": "Butler County Board of Elections", "zip": "16001", "phone": "724-284-5308", "state": "Pennsylvania", "address": "W Diamond St"}, {"city": "Ebensburg", "fax": "814-472-9642", "name": "Cambria County Board of Elections", "zip": "15931", "phone": "814-472-1464", "state": "Pennsylvania", "address": "PO Box 269"}, {"city": "Emporium", "fax": "", "name": "Cameron County Board of Elections", "zip": "15834", "phone": "814-486-2315", "state": "Pennsylvania", "address": "20 East 5th Street"}, {"city": "Jim Thorpe", "fax": "570-325-3622", "name": "Carbon County Board of Elections", "zip": "18229", "phone": "570-325-4801", "state": "Pennsylvania", "address": "PO Box 170"}, {"city": "Bellefonte", "fax": "814-355-6857", "name": "Centre County Board of Elections", "zip": "16823", "phone": "814-355-6703", "state": "Pennsylvania", "address": "420 Holmes Street"}, {"city": "West Chester", "fax": "", "name": "Chester County Board of Elections", "zip": "19382", "phone": "610-344-6410", "state": "Pennsylvania", "address": "601 Westtown Road"}, {"city": "Clarion", "fax": "", "name": "Clarion County Board of Elections", "zip": "16214", "phone": "814-226-4000", "state": "Pennsylvania", "address": "330 Main Street"}, {"city": "Clearfield", "fax": "", "name": "Clearfield County Board of Elections", "zip": "16830", "phone": "814-765-2642", "state": "Pennsylvania", "address": "212 East Locust Street"}, {"city": "Lock Haven", "fax": "", "name": "Clinton County Board of Elections", "zip": "17745", "phone": "570-893-4019", "state": "Pennsylvania", "address": "232 East Main Street"}, {"city": "Bloomsburg", "fax": "", "name": "Columbia County Board of Elections", "zip": "17815", "phone": "570-389-5640", "state": "Pennsylvania", "address": "35 West Main Street"}, {"city": "Meadville", "fax": "814-337-0457", "name": "Crawford County Board of Elections", "zip": "16335", "phone": "814-333-7308", "state": "Pennsylvania", "address": "Diamond Park Crawford County Courthouse 903"}], "District of Columbia": [{"city": "Washington", "fax": "202-639-8916", "name": "District Of Columbia Board of Elections", "zip": "20001", "phone": "202-727-2525", "state": "District of Columbia", "address": "441 4 \u00bd Street Northwest"}], "California": [{"city": "Oakland", "fax": "510-272-6982", "name": "Alameda County Board of Elections", "zip": "94612", "phone": "510-272-6933", "state": "California", "address": "1225 Fallon Street"}, {"city": "Markleeville", "fax": "530-694-2491", "name": "Alpine County Board of Elections", "zip": "96120", "phone": "530-694-2281", "state": "California", "address": "PO Box 158"}, {"city": "Jackson", "fax": "209-223-6467", "name": "Amador County Board of Elections", "zip": "95642", "phone": "209-223-6465", "state": "California", "address": "810 Court Street"}, {"city": "Oroville", "fax": "530-538-6853", "name": "Butte County Board of Elections", "zip": "95965", "phone": "530-538-7761", "state": "California", "address": "25 County Center Drive"}, {"city": "San Andreas", "fax": "209-754-6733", "name": "Calaveras County Board of Elections", "zip": "95249", "phone": "209-754-6376", "state": "California", "address": "891 Mountain Ranch Road"}, {"city": "Colusa", "fax": "530-458-0512", "name": "Colusa County Board of Elections", "zip": "95932", "phone": "530-458-0500", "state": "California", "address": "546 Jay Street"}, {"city": "Martinez", "fax": "925-335-7843", "name": "Contra Costa County Board of Elections", "zip": "94553", "phone": "925-335-7800", "state": "California", "address": "PO Box 271"}, {"city": "Crescent", "fax": "707-465-0321", "name": "Del Norte County Board of Elections", "zip": "95531", "phone": "707-464-7216", "state": "California", "address": "981 Front Street"}, {"city": "Placerville", "fax": "530-626-5514", "name": "El Dorado County Board of Elections", "zip": "95667", "phone": "530-621-7480", "state": "California", "address": "2850 Fairlane Court"}, {"city": "Fresno", "fax": "559-488-3279", "name": "Fresno County Board of Elections", "zip": "93721", "phone": "559-600-8683", "state": "California", "address": "2221 Kern Street"}, {"city": "Willows", "fax": "530-934-6571", "name": "Glenn County Board of Elections", "zip": "95988", "phone": "530-934-6414", "state": "California", "address": "516 West Sycamore Street"}, {"city": "Eureka", "fax": "707-445-7204", "name": "Humboldt County Board of Elections", "zip": "95501", "phone": "707-445-7481", "state": "California", "address": "3033 H Street"}, {"city": "El Centro", "fax": "760-337-4182", "name": "Imperial County Board of Elections", "zip": "92243", "phone": "760-482-4226", "state": "California", "address": "940 West Main Street"}, {"city": "Independence", "fax": "760-878-1805", "name": "Inyo County Board of Elections", "zip": "93526", "phone": "760-878-0224", "state": "California", "address": "PO Box F"}, {"city": "Bakersfield", "fax": "661-868-3768", "name": "Kern County Board of Elections", "zip": "93301", "phone": "661-868-3590", "state": "California", "address": "1115 Truxtun Avenue"}, {"city": "Hanford", "fax": "559-585-8453", "name": "Kings County Board of Elections", "zip": "93230", "phone": "559-582-3211", "state": "California", "address": "1400 West Lacey Boulevard"}, {"city": "Lakeport", "fax": "707-263-2742", "name": "Lake County Board of Elections", "zip": "95453", "phone": "707-263-2372", "state": "California", "address": "255 North Forbes Street"}, {"city": "Susanville", "fax": "530-257-3480", "name": "Lassen County Board of Elections", "zip": "96130", "phone": "530-251-8217", "state": "California", "address": "220 South Lassen Street"}, {"city": "Norwalk", "fax": "562-929-4790", "name": "Los Angeles County Board of Elections", "zip": "90651", "phone": "562-466-1310", "state": "California", "address": "PO Box 1024"}, {"city": "Madera", "fax": "559-675-7870", "name": "Madera County Board of Elections", "zip": "93637", "phone": "559-675-7720", "state": "California", "address": "200 West 4th Street"}], "Missouri": [{"city": "Kirksville", "fax": "660-785-3233", "name": "Adair County Board of Elections", "zip": "63501", "phone": "660-665-3350", "state": "Missouri", "address": "106 West Washington Street"}, {"city": "Savannah", "fax": "816-324-6154", "name": "Andrew County Board of Elections", "zip": "64485", "phone": "816-324-3624", "state": "Missouri", "address": "PO Box 206"}, {"city": "Rock Port", "fax": "660-744-5499", "name": "Atchison County Board of Elections", "zip": "64482", "phone": "660-744-6214", "state": "Missouri", "address": "PO Box 280"}, {"city": "Mexico", "fax": "573-581-2380", "name": "Audrain County Board of Elections", "zip": "65265", "phone": "573-473-5820", "state": "Missouri", "address": "101 North Jefferson Street"}, {"city": "Cassville", "fax": "417-847-5311", "name": "Barry County Board of Elections", "zip": "65625", "phone": "417-847-2561", "state": "Missouri", "address": "700 Main Street"}, {"city": "Lamar", "fax": "417-682-4100", "name": "Barton County Board of Elections", "zip": "64759", "phone": "417-682-3529", "state": "Missouri", "address": "1004 Gulf Street"}, {"city": "Butler", "fax": "660-679-9922", "name": "Bates County Board of Elections", "zip": "64730", "phone": "660-679-3371", "state": "Missouri", "address": "1 North Delaware Street"}, {"city": "Warsaw", "fax": "660-438-3275", "name": "Benton County Board of Elections", "zip": "65355", "phone": "660-438-7326", "state": "Missouri", "address": "PO Box 1238"}, {"city": "Marble Hill", "fax": "573-238-3275", "name": "Bollinger County Board of Elections", "zip": "63764", "phone": "573-238-1900", "state": "Missouri", "address": "204 High Street"}, {"city": "Columbia", "fax": "573-886-4300", "name": "Boone County Board of Elections", "zip": "65201", "phone": "573-886-4295", "state": "Missouri", "address": "801 East Walnut Street"}, {"city": "St. Joseph", "fax": "816-271-1535", "name": "Buchanan County Board of Elections", "zip": "64501", "phone": "816-271-1411", "state": "Missouri", "address": "411 Jules Street"}, {"city": "Poplar Bluff", "fax": "573-686-8066", "name": "Butler County Board of Elections", "zip": "63901", "phone": "573-686-8050", "state": "Missouri", "address": "100 North Main Street"}, {"city": "Kingston", "fax": "816-586-3001", "name": "Caldwell County Board of Elections", "zip": "64650", "phone": "816-586-2571", "state": "Missouri", "address": "PO Box 67"}, {"city": "Fulton", "fax": "573-642-7181", "name": "Callaway County Board of Elections", "zip": "65251", "phone": "573-642-0730", "state": "Missouri", "address": "10 East 5th Street"}, {"city": "Camdenton", "fax": "573-346-8445", "name": "Camden County Board of Elections", "zip": "65020", "phone": "573-317-3890", "state": "Missouri", "address": "1 Court Circle Northwest"}, {"city": "Jackson", "fax": "573-204-2418", "name": "Cape Girardeau County Board of Elections", "zip": "63755", "phone": "573-243-3547", "state": "Missouri", "address": "1 Barton Square"}, {"city": "Carrollton", "fax": "660-542-0621", "name": "Carroll County Board of Elections", "zip": "64633", "phone": "660-542-0615", "state": "Missouri", "address": "8 South Main Street"}, {"city": "Van Buren", "fax": "573-323-4527", "name": "Carter County Board of Elections", "zip": "63965", "phone": "573-323-4527", "state": "Missouri", "address": "PO Box 517"}, {"city": "Harrisonville", "fax": "816-380-8101", "name": "Cass County Board of Elections", "zip": "64701", "phone": "816-380-8102", "state": "Missouri", "address": "102 East Wall Street"}, {"city": "Stockton", "fax": "417-276-3461", "name": "Cedar County Board of Elections", "zip": "65785", "phone": "417-276-6700", "state": "Missouri", "address": "113 South Street"}], "Nevada": [{"city": "Carson City", "fax": "775-887-2146", "name": "Carson City County Board of Elections", "zip": "89701", "phone": "775-887-2087", "state": "Nevada", "address": "885 E Musser St Ste 1025"}, {"city": "Fallon", "fax": "", "name": "Churchill County Board of Elections", "zip": "89406", "phone": "775-423-6028", "state": "Nevada", "address": "155 North Taylor Street"}, {"city": "North Las Vegas", "fax": "702-455-2793", "name": "Clark County Board of Elections", "zip": "89030", "phone": "702-455-8683", "state": "Nevada", "address": "965 Trade Drive"}, {"city": "Minden", "fax": "775-782-9016", "name": "Douglas County Board of Elections", "zip": "89423", "phone": "775-782-9023", "state": "Nevada", "address": "1616 8th Street"}, {"city": "Elko", "fax": "775-753-4610", "name": "Elko County Board of Elections", "zip": "89801", "phone": "775-753-4600", "state": "Nevada", "address": "550 Court Street"}, {"city": "Goldfield", "fax": "775-485-6376", "name": "Esmeralda County Board of Elections", "zip": "89013", "phone": "775-485-6367", "state": "Nevada", "address": "PO Box 547"}, {"city": "Eureka", "fax": "775-237-6015", "name": "Eureka County Board of Elections", "zip": "89316", "phone": "775-237-5262", "state": "Nevada", "address": "PO Box 677"}, {"city": "Winnemucca", "fax": "", "name": "Humboldt County Board of Elections", "zip": "89445", "phone": "775-623-6343", "state": "Nevada", "address": "50 West 5th Street"}, {"city": "Battle Mountain", "fax": "775-635-0394", "name": "Lander County Board of Elections", "zip": "89820", "phone": "775-635-5738", "state": "Nevada", "address": "315 South Humboldt Street"}, {"city": "Pioche", "fax": "775-962-5180", "name": "Lincoln County Board of Elections", "zip": "89043", "phone": "775-962-5390", "state": "Nevada", "address": "181 North Main Street"}, {"city": "Yerington", "fax": "775-463-5305", "name": "Lyon County Board of Elections", "zip": "89447", "phone": "775-463-6501", "state": "Nevada", "address": "27 South Main Street"}, {"city": "Hawthorne", "fax": "775-945-0706", "name": "Mineral County Board of Elections", "zip": "89415", "phone": "775-945-2446", "state": "Nevada", "address": "105 A Street"}, {"city": "Tonopah", "fax": "775-482-8133", "name": "Nye County Board of Elections", "zip": "89049", "phone": "775-482-8127", "state": "Nevada", "address": "101 Radar Road"}, {"city": "Lovelock", "fax": "775-273-3015", "name": "Pershing County Board of Elections", "zip": "89419", "phone": "775-273-2208", "state": "Nevada", "address": "PO Box 820"}, {"city": "Virginia City", "fax": "775-847-0921", "name": "Storey County Board of Elections", "zip": "89440", "phone": "775-847-0969", "state": "Nevada", "address": "26 B Street"}, {"city": "Reno", "fax": "775-328-3747", "name": "Washoe County Board of Elections", "zip": "89512", "phone": "775-328-3670", "state": "Nevada", "address": "1001 East 9th Street"}, {"city": "Ely", "fax": "775-293-2544", "name": "White Pine County Board of Elections", "zip": "89301", "phone": "775-293-6509", "state": "Nevada", "address": "801 Clark Street"}], "Louisiana": [{"city": "Crowley", "fax": "337-788-3571", "name": "Acadia Parish Board of Elections", "zip": "70526", "phone": "337-788-8841", "state": "Louisiana", "address": "568 Northeast Court Circle"}, {"city": "Oberlin", "fax": "337-639-4691", "name": "Allen Parish Board of Elections", "zip": "70655", "phone": "337-639-4966", "state": "Louisiana", "address": "105 North 5th Street"}, {"city": "Gonzales", "fax": "225-621-5783", "name": "Ascension Parish Board of Elections", "zip": "70737", "phone": "225-621-5780", "state": "Louisiana", "address": "828 South Irma Avenue"}, {"city": "Napoleonville", "fax": "985-369-2976", "name": "Assumption Parish Board of Elections", "zip": "70390", "phone": "985-369-7347", "state": "Louisiana", "address": "4809 Route 1"}, {"city": "Marksville", "fax": "318-253-0359", "name": "Avoyelles Parish Board of Elections", "zip": "71351", "phone": "318-253-7129", "state": "Louisiana", "address": "312 North Main Street"}, {"city": "DeRidder", "fax": "337-463-7986", "name": "Beauregard Parish Board of Elections", "zip": "70634", "phone": "337-463-7955", "state": "Louisiana", "address": "204 South Stewart Street"}, {"city": "Arcadia", "fax": "318-263-4101", "name": "Bienville Parish Board of Elections", "zip": "71001", "phone": "318-263-7407", "state": "Louisiana", "address": "100 Courthouse Drive"}, {"city": "Benton", "fax": "318-965-3760", "name": "Bossier Parish Board of Elections", "zip": "71006", "phone": "318-965-2301", "state": "Louisiana", "address": "204 Burt Boulevard"}, {"city": "Shreveport", "fax": "318-226-6969", "name": "Caddo Parish Board of Elections", "zip": "71101", "phone": "318-226-6891", "state": "Louisiana", "address": "525 Marshall Street"}, {"city": "Lake Charles", "fax": "337-437-3389", "name": "Calcasieu Parish Board of Elections", "zip": "70601", "phone": "337-721-4000", "state": "Louisiana", "address": "1000 Ryan Street"}, {"city": "Columbia", "fax": "318-649-7320", "name": "Caldwell Parish Board of Elections", "zip": "71418", "phone": "318-649-7364", "state": "Louisiana", "address": "201 Main Street"}, {"city": "Cameron", "fax": "337-775-8014", "name": "Cameron Parish Board of Elections", "zip": "70631", "phone": "337-775-5493", "state": "Louisiana", "address": "148 Smith Cir"}, {"city": "Jonesville", "fax": "318-744-2010", "name": "Catahoula Parish Board of Elections", "zip": "71343", "phone": "318-744-5745", "state": "Louisiana", "address": "301 Bushley Street"}, {"city": "Homer", "fax": "318-927-3345", "name": "Claiborne Parish Board of Elections", "zip": "71040", "phone": "318-927-3332", "state": "Louisiana", "address": "507 West Main Street"}, {"city": "Vidalia", "fax": "318-336-9906", "name": "Concordia Parish Board of Elections", "zip": "71373", "phone": "318-336-7770", "state": "Louisiana", "address": "4001 Carter St Ste K"}, {"city": "Mansfield", "fax": "318-872-1153", "name": "De Soto Parish Board of Elections", "zip": "71052", "phone": "318-872-1149", "state": "Louisiana", "address": "105 Franklin Street"}, {"city": "Baton Rouge", "fax": "225-389-5340", "name": "East Baton Rouge Parish Board of Elections", "zip": "70802", "phone": "225-389-3940", "state": "Louisiana", "address": "222 Saint Louis Street"}, {"city": "Lake Providence", "fax": "318-559-5110", "name": "East Carroll Parish Board of Elections", "zip": "71254", "phone": "318-559-2015", "state": "Louisiana", "address": "400 1st Street"}, {"city": "Clinton", "fax": "225-683-9464", "name": "East Feliciana Parish Board of Elections", "zip": "70722", "phone": "225-683-3105", "state": "Louisiana", "address": "11048 Bank Street"}, {"city": "Ville Platte", "fax": "337-363-5530", "name": "Evangeline Parish Board of Elections", "zip": "70586", "phone": "337-363-5538", "state": "Louisiana", "address": "200 Court Street"}]}